{
  "type": "FeatureCollection",
  "features": [
    {
      "type": "Feature",
      "properties": {
        "norad_id": 30454,
        "name": "FENGYUN 1C DEB",
        "group": "fengyun-1c-debris",
        "lat": -5.991064674847227,
        "lon": 141.81803663724554,
        "alt_km": 722.4249141397213,
        "timestamp": "2025-12-18T23:35:49.337001+00:00",
        "meta_object_name": "FENGYUN 1C DEB",
        "meta_object_id": "1999-025AFR",
        "meta_epoch": "2025-12-18T11:27:51.906240",
        "meta_mean_motion": 14.15427887,
        "meta_eccentricity": 0.01711878,
        "meta_inclination": 98.1331,
        "meta_ra_of_asc_node": 322.2164,
        "meta_arg_of_pericenter": 178.2986,
        "meta_mean_anomaly": 312.8676,
        "meta_ephemeris_type": 0,
        "meta_classification_type": "U",
        "meta_norad_cat_id": 30454,
        "meta_element_set_no": 999,
        "meta_rev_at_epoch": 96041,
        "meta_bstar": 0.0013539256,
        "meta_mean_motion_dot": 3.007e-05,
        "meta_mean_motion_ddot": 0,
        "tle_line1": "1 30454U 99025AFR 25352.47768410  .00003007  00000+0  13539-2 0  9997",
        "tle_line2": "2 30454  98.1331 322.2164 0171187 178.2986 312.8676 14.15427887960419"
      },
      "geometry": {
        "type": "Point",
        "coordinates": [
          141.81803663724554,
          -5.991064674847227
        ]
      }
    },
    {
      "type": "Feature",
      "properties": {
        "norad_id": 30462,
        "name": "FENGYUN 1C DEB",
        "group": "fengyun-1c-debris",
        "lat": 77.15342255596975,
        "lon": -61.82320446908657,
        "alt_km": 953.4633149528727,
        "timestamp": "2025-12-18T23:35:49.337012+00:00",
        "meta_object_name": "FENGYUN 1C DEB",
        "meta_object_id": "1999-025AFZ",
        "meta_epoch": "2025-12-18T11:52:08.031360",
        "meta_mean_motion": 14.06269834,
        "meta_eccentricity": 0.01389359,
        "meta_inclination": 98.8169,
        "meta_ra_of_asc_node": 340.5904,
        "meta_arg_of_pericenter": 233.9425,
        "meta_mean_anomaly": 254.8874,
        "meta_ephemeris_type": 0,
        "meta_classification_type": "U",
        "meta_norad_cat_id": 30462,
        "meta_element_set_no": 999,
        "meta_rev_at_epoch": 96874,
        "meta_bstar": 0.00029140621,
        "meta_mean_motion_dot": 4.8e-06,
        "meta_mean_motion_ddot": 0,
        "tle_line1": "1 30462U 99025AFZ 25352.49453740  .00000480  00000+0  29141-3 0  9994",
        "tle_line2": "2 30462  98.8169 340.5904 0138935 233.9425 254.8874 14.06269834968745"
      },
      "geometry": {
        "type": "Point",
        "coordinates": [
          -61.82320446908657,
          77.15342255596975
        ]
      }
    },
    {
      "type": "Feature",
      "properties": {
        "norad_id": 30464,
        "name": "FENGYUN 1C DEB",
        "group": "fengyun-1c-debris",
        "lat": -41.83765378536866,
        "lon": -144.8263839274494,
        "alt_km": 790.5273671134191,
        "timestamp": "2025-12-18T23:35:49.337022+00:00",
        "meta_object_name": "FENGYUN 1C DEB",
        "meta_object_id": "1999-025AGB",
        "meta_epoch": "2025-12-18T09:13:02.281152",
        "meta_mean_motion": 14.10247684,
        "meta_eccentricity": 0.01084183,
        "meta_inclination": 98.8364,
        "meta_ra_of_asc_node": 42.5904,
        "meta_arg_of_pericenter": 242.4836,
        "meta_mean_anomaly": 180.1142,
        "meta_ephemeris_type": 0,
        "meta_classification_type": "U",
        "meta_norad_cat_id": 30464,
        "meta_element_set_no": 999,
        "meta_rev_at_epoch": 97143,
        "meta_bstar": 0.00010546652,
        "meta_mean_motion_dot": 1.53e-06,
        "meta_mean_motion_ddot": 0,
        "tle_line1": "1 30464U 99025AGB 25352.38405418  .00000153  00000+0  10547-3 0  9990",
        "tle_line2": "2 30464  98.8364  42.5904 0108418 242.4836 180.1142 14.10247684971430"
      },
      "geometry": {
        "type": "Point",
        "coordinates": [
          -144.8263839274494,
          -41.83765378536866
        ]
      }
    },
    {
      "type": "Feature",
      "properties": {
        "norad_id": 30465,
        "name": "FENGYUN 1C DEB",
        "group": "fengyun-1c-debris",
        "lat": -58.459338209430115,
        "lon": -113.3439801528474,
        "alt_km": 793.5617872513149,
        "timestamp": "2025-12-18T23:35:49.337033+00:00",
        "meta_object_name": "FENGYUN 1C DEB",
        "meta_object_id": "1999-025AGC",
        "meta_epoch": "2025-12-18T06:01:16.182336",
        "meta_mean_motion": 14.33930039,
        "meta_eccentricity": 0.00164386,
        "meta_inclination": 98.8298,
        "meta_ra_of_asc_node": 80.5788,
        "meta_arg_of_pericenter": 13.803,
        "meta_mean_anomaly": 47.6264,
        "meta_ephemeris_type": 0,
        "meta_classification_type": "U",
        "meta_norad_cat_id": 30465,
        "meta_element_set_no": 999,
        "meta_rev_at_epoch": 97437,
        "meta_bstar": 0.0014844401,
        "meta_mean_motion_dot": 4.101e-05,
        "meta_mean_motion_ddot": 0,
        "tle_line1": "1 30465U 99025AGC 25352.25088174  .00004101  00000+0  14844-2 0  9993",
        "tle_line2": "2 30465  98.8298  80.5788 0016438  13.8030  47.6264 14.33930039974371"
      },
      "geometry": {
        "type": "Point",
        "coordinates": [
          -113.3439801528474,
          -58.459338209430115
        ]
      }
    },
    {
      "type": "Feature",
      "properties": {
        "norad_id": 30466,
        "name": "FENGYUN 1C DEB",
        "group": "fengyun-1c-debris",
        "lat": -72.79081015327338,
        "lon": 62.35498028946478,
        "alt_km": 810.2743560221152,
        "timestamp": "2025-12-18T23:35:49.337044+00:00",
        "meta_object_name": "FENGYUN 1C DEB",
        "meta_object_id": "1999-025AGD",
        "meta_epoch": "2025-12-18T14:25:04.516608",
        "meta_mean_motion": 14.22561655,
        "meta_eccentricity": 0.01162051,
        "meta_inclination": 98.6548,
        "meta_ra_of_asc_node": 32.523,
        "meta_arg_of_pericenter": 7.2953,
        "meta_mean_anomaly": 121.4094,
        "meta_ephemeris_type": 0,
        "meta_classification_type": "U",
        "meta_norad_cat_id": 30466,
        "meta_element_set_no": 999,
        "meta_rev_at_epoch": 97434,
        "meta_bstar": 0.0008834185,
        "meta_mean_motion_dot": 2.071e-05,
        "meta_mean_motion_ddot": 0,
        "tle_line1": "1 30466U 99025AGD 25352.60074672  .00002071  00000+0  88342-3 0  9990",
        "tle_line2": "2 30466  98.6548  32.5230 0116205   7.2953 121.4094 14.22561655974342"
      },
      "geometry": {
        "type": "Point",
        "coordinates": [
          62.35498028946478,
          -72.79081015327338
        ]
      }
    },
    {
      "type": "Feature",
      "properties": {
        "norad_id": 30467,
        "name": "FENGYUN 1C DEB",
        "group": "fengyun-1c-debris",
        "lat": -40.023981777038266,
        "lon": 27.736524252344395,
        "alt_km": 881.7977677634963,
        "timestamp": "2025-12-18T23:35:49.337054+00:00",
        "meta_object_name": "FENGYUN 1C DEB",
        "meta_object_id": "1999-025AGE",
        "meta_epoch": "2025-12-18T14:12:51.188832",
        "meta_mean_motion": 14.17294683,
        "meta_eccentricity": 0.00652796,
        "meta_inclination": 98.6784,
        "meta_ra_of_asc_node": 19.9854,
        "meta_arg_of_pericenter": 110.9096,
        "meta_mean_anomaly": 15.362,
        "meta_ephemeris_type": 0,
        "meta_classification_type": "U",
        "meta_norad_cat_id": 30467,
        "meta_element_set_no": 999,
        "meta_rev_at_epoch": 97260,
        "meta_bstar": 0.00069262308,
        "meta_mean_motion_dot": 1.387e-05,
        "meta_mean_motion_ddot": 0,
        "tle_line1": "1 30467U 99025AGE 25352.59225913  .00001387  00000+0  69262-3 0  9994",
        "tle_line2": "2 30467  98.6784  19.9854 0065279 110.9096  15.3620 14.17294683972601"
      },
      "geometry": {
        "type": "Point",
        "coordinates": [
          27.736524252344395,
          -40.023981777038266
        ]
      }
    },
    {
      "type": "Feature",
      "properties": {
        "norad_id": 30468,
        "name": "FENGYUN 1C DEB",
        "group": "fengyun-1c-debris",
        "lat": -13.235110774501681,
        "lon": 76.65511378837203,
        "alt_km": 785.0362239381466,
        "timestamp": "2025-12-18T23:35:49.337064+00:00",
        "meta_object_name": "FENGYUN 1C DEB",
        "meta_object_id": "1999-025AGF",
        "meta_epoch": "2025-12-18T05:19:32.401056",
        "meta_mean_motion": 14.20741893,
        "meta_eccentricity": 0.0071584,
        "meta_inclination": 98.9222,
        "meta_ra_of_asc_node": 73.7694,
        "meta_arg_of_pericenter": 24.0862,
        "meta_mean_anomaly": 31.4426,
        "meta_ephemeris_type": 0,
        "meta_classification_type": "U",
        "meta_norad_cat_id": 30468,
        "meta_element_set_no": 999,
        "meta_rev_at_epoch": 96888,
        "meta_bstar": 0.0011866687,
        "meta_mean_motion_dot": 2.582e-05,
        "meta_mean_motion_ddot": 0,
        "tle_line1": "1 30468U 99025AGF 25352.22190279  .00002582  00000+0  11867-2 0  9996",
        "tle_line2": "2 30468  98.9222  73.7694 0071584  24.0862  31.4426 14.20741893968886"
      },
      "geometry": {
        "type": "Point",
        "coordinates": [
          76.65511378837203,
          -13.235110774501681
        ]
      }
    }
  ]
}